[{"OBJECT_NAME":"STARLINK-3080","OBJECT_ID":"2021-082AH","EPOCH":"2026-03-09T22:44:32.359200","MEAN_MOTION":14.98350108,"ECCENTRICITY":0.00029736,"INCLINATION":69.9984,"RA_OF_ASC_NODE":293.7844,"ARG_OF_PERICENTER":264.6976,"MEAN_ANOMALY":95.3844,"EPHEMERIS_TYPE":0,"CLASSIFICATION_TYPE":"U","NORAD_CAT_ID":49161,"ELEMENT_SET_NO":999,"REV_AT_EPOCH":24709,"BSTAR":0.00012716737,"MEAN_MOTION_DOT":1.425e-5,"MEAN_MOTION_DDOT":0},{"OBJECT_NAME":"HAWK-10A","OBJECT_ID":"2024-149CA","EPOCH":"2026-03-09T19:11:42.074592","MEAN_MOTION":14.96174213,"ECCENTRICITY":0.00043334,"INCLINATION":97.6943,"RA_OF_ASC_NODE":146.4192,"ARG_OF_PERICENTER":57.1994,"MEAN_ANOMALY":302.9645,"EPHEMERIS_TYPE":0,"CLASSIFICATION_TYPE":"U","NORAD_CAT_ID":60540,"ELEMENT_SET_NO":999,"REV_AT_EPOCH":8512,"BSTAR":0.00019454,"MEAN_MOTION_DOT":2.135e-5,"MEAN_MOTION_DDOT":0}]
